start=new Date('2022-08-20T00:00:00.000Z').valueOf();
sats=[{"MEAN_MOTION_DOT":"0.00002306","CLASSIFICATION_TYPE":"U","CENTER_NAME":"EARTH","MEAN_MOTION_DDOT":"0.0000000000000","SEMIMAJOR_AXIS":"6917.848","ARG_OF_PERICENTER":"55.7522","PERIAPSIS":"538.655","SITE":"AFETR","FILE":"3540406","EPOCH":"2022-08-19T01:08:41.586720","ELEMENT_SET_NO":"999","REF_FRAME":"TEME","MEAN_MOTION":"15.08850444","LAUNCH_DATE":"2022-01-19","OBJECT_NAME":"STARLINK-3394","REV_AT_EPOCH":"3282","MEAN_ANOMALY":"304.3615","GP_ID":"210518028","EPHEMERIS_TYPE":"0","RA_OF_ASC_NODE":"358.9426","OBJECT_ID":"2022-005Q","INCLINATION":"53.2180","PERIOD":"95.437","APOAPSIS":"540.772","DECAY_DATE":null,"OBJECT_TYPE":"PAYLOAD","COUNTRY_CODE":"US","ECCENTRICITY":"0.00015300","RCS_SIZE":"LARGE","NORAD_CAT_ID":"51118","TLE_LINE1":"1 51118U 22005Q   22231.04770355  .00002306  00000-0  16288-3 0  9995","BSTAR":"0.00016288000000","MEAN_ELEMENT_THEORY":"SGP4","TLE_LINE2":"2 51118  53.2180 358.9426 0001530  55.7522 304.3615 15.08850444 32825","TIME_SYSTEM":"UTC"},{"MEAN_MOTION_DDOT":"0.0000000000000","SEMIMAJOR_AXIS":"6917.890","MEAN_MOTION_DOT":"-0.00000684","CENTER_NAME":"EARTH","CLASSIFICATION_TYPE":"U","ELEMENT_SET_NO":"999","REF_FRAME":"TEME","MEAN_MOTION":"15.08836702","OBJECT_NAME":"STARLINK-3390","REV_AT_EPOCH":"3294","LAUNCH_DATE":"2022-01-19","MEAN_ANOMALY":"280.3403","GP_ID":"210548593","ARG_OF_PERICENTER":"79.7740","PERIAPSIS":"538.831","SITE":"AFETR","FILE":"3540705","EPOCH":"2022-08-19T19:41:31.861824","PERIOD":"95.438","DECAY_DATE":null,"APOAPSIS":"540.680","OBJECT_TYPE":"PAYLOAD","EPHEMERIS_TYPE":"0","RA_OF_ASC_NODE":"355.4855","OBJECT_ID":"2022-005R","INCLINATION":"53.2187","RCS_SIZE":"LARGE","NORAD_CAT_ID":"51119","TLE_LINE1":"1 51119U 22005R   22231.82050766 -.00000684  00000-0 -24875-4 0  9990","BSTAR":"-0.00002487500000","TIME_SYSTEM":"UTC","MEAN_ELEMENT_THEORY":"SGP4","TLE_LINE2":"2 51119  53.2187 355.4855 0001337  79.7740 280.3403 15.08836702 32946","ECCENTRICITY":"0.00013370","COUNTRY_CODE":"US"},{"SEMIMAJOR_AXIS":"6917.846","MEAN_MOTION_DDOT":"0.0000000000000","MEAN_MOTION_DOT":"0.00001931","CLASSIFICATION_TYPE":"U","CENTER_NAME":"EARTH","MEAN_MOTION":"15.08851373","ELEMENT_SET_NO":"999","REF_FRAME":"TEME","MEAN_ANOMALY":"288.8893","GP_ID":"210548844","LAUNCH_DATE":"2022-01-19","OBJECT_NAME":"STARLINK-3398","REV_AT_EPOCH":"3290","PERIAPSIS":"539.121","ARG_OF_PERICENTER":"71.2191","EPOCH":"2022-08-19T13:09:22.575744","FILE":"3540705","SITE":"AFETR","APOAPSIS":"540.300","DECAY_DATE":null,"PERIOD":"95.437","OBJECT_TYPE":"PAYLOAD","OBJECT_ID":"2022-005S","EPHEMERIS_TYPE":"0","RA_OF_ASC_NODE":"356.7127","INCLINATION":"53.2172","BSTAR":"0.00013932000000","TLE_LINE1":"1 51120U 22005S   22231.54817796  .00001931  00000-0  13932-3 0  9990","NORAD_CAT_ID":"51120","RCS_SIZE":"LARGE","MEAN_ELEMENT_THEORY":"SGP4","TLE_LINE2":"2 51120  53.2172 356.7127 0000852  71.2191 288.8893 15.08851373 32909","TIME_SYSTEM":"UTC","COUNTRY_CODE":"US","ECCENTRICITY":"0.00008520"},{"RA_OF_ASC_NODE":"356.9251","EPHEMERIS_TYPE":"0","OBJECT_ID":"2022-005T","INCLINATION":"53.2179","PERIOD":"95.438","DECAY_DATE":null,"APOAPSIS":"540.820","OBJECT_TYPE":"PAYLOAD","ECCENTRICITY":"0.00015300","COUNTRY_CODE":"US","RCS_SIZE":"LARGE","NORAD_CAT_ID":"51121","TLE_LINE1":"1 51121U 22005T   22231.49667159  .00000112  00000-0  25146-4 0  9992","BSTAR":"0.00002514600000","TIME_SYSTEM":"UTC","MEAN_ELEMENT_THEORY":"SGP4","TLE_LINE2":"2 51121  53.2179 356.9251 0001530  58.6951 301.4191 15.08834552 32895","MEAN_MOTION_DOT":"0.00000112","CENTER_NAME":"EARTH","CLASSIFICATION_TYPE":"U","MEAN_MOTION_DDOT":"0.0000000000000","SEMIMAJOR_AXIS":"6917.897","ARG_OF_PERICENTER":"58.6951","PERIAPSIS":"538.704","FILE":"3540406","SITE":"AFETR","EPOCH":"2022-08-19T11:55:12.425376","ELEMENT_SET_NO":"999","REF_FRAME":"TEME","MEAN_MOTION":"15.08834552","OBJECT_NAME":"STARLINK-3399","REV_AT_EPOCH":"3289","LAUNCH_DATE":"2022-01-19","MEAN_ANOMALY":"301.4191","GP_ID":"210518286"},{"PERIAPSIS":"538.731","ARG_OF_PERICENTER":"77.4258","EPOCH":"2022-08-19T03:42:22.343328","SITE":"AFETR","FILE":"3540406","MEAN_MOTION":"15.08854478","ELEMENT_SET_NO":"999","REF_FRAME":"TEME","MEAN_ANOMALY":"282.6891","GP_ID":"210518528","REV_AT_EPOCH":"3284","OBJECT_NAME":"STARLINK-3373","LAUNCH_DATE":"2022-01-19","MEAN_MOTION_DOT":"0.00006696","CENTER_NAME":"EARTH","CLASSIFICATION_TYPE":"U","SEMIMAJOR_AXIS":"6917.836","MEAN_MOTION_DDOT":"0.0000000000000","ECCENTRICITY":"0.00014030","COUNTRY_CODE":"US","BSTAR":"0.00043821000000","TLE_LINE1":"1 51122U 22005U   22231.15442527  .00006696  00000-0  43821-3 0  9998","RCS_SIZE":"LARGE","NORAD_CAT_ID":"51122","TIME_SYSTEM":"UTC","MEAN_ELEMENT_THEORY":"SGP4","TLE_LINE2":"2 51122  53.2178 358.4819 0001403  77.4258 282.6891 15.08854478 32841","OBJECT_ID":"2022-005U","EPHEMERIS_TYPE":"0","RA_OF_ASC_NODE":"358.4819","INCLINATION":"53.2178","DECAY_DATE":null,"APOAPSIS":"540.672","PERIOD":"95.437","OBJECT_TYPE":"PAYLOAD"},{"OBJECT_TYPE":"PAYLOAD","DECAY_DATE":null,"APOAPSIS":"540.980","PERIOD":"95.437","INCLINATION":"53.2160","OBJECT_ID":"2022-005V","EPHEMERIS_TYPE":"0","RA_OF_ASC_NODE":"356.1345","TIME_SYSTEM":"UTC","MEAN_ELEMENT_THEORY":"SGP4","TLE_LINE2":"2 51123  53.2160 356.1345 0001788  63.8085 296.3091 15.08840899 32920","BSTAR":"0.00008449800000","TLE_LINE1":"1 51123U 22005V   22231.67698908  .00001057  00000-0  84498-4 0  9994","NORAD_CAT_ID":"51123","RCS_SIZE":"LARGE","ECCENTRICITY":"0.00017880","COUNTRY_CODE":"US","SEMIMAJOR_AXIS":"6917.878","MEAN_MOTION_DDOT":"0.0000000000000","CENTER_NAME":"EARTH","CLASSIFICATION_TYPE":"U","MEAN_MOTION_DOT":"0.00001057","GP_ID":"210549093","MEAN_ANOMALY":"296.3091","OBJECT_NAME":"STARLINK-3392","REV_AT_EPOCH":"3292","LAUNCH_DATE":"2022-01-19","MEAN_MOTION":"15.08840899","ELEMENT_SET_NO":"999","REF_FRAME":"TEME","EPOCH":"2022-08-19T16:14:51.856512","SITE":"AFETR","FILE":"3540705","PERIAPSIS":"538.506","ARG_OF_PERICENTER":"63.8085"},{"MEAN_MOTION_DDOT":"0.0000000000000","SEMIMAJOR_AXIS":"6917.903","CENTER_NAME":"EARTH","CLASSIFICATION_TYPE":"U","MEAN_MOTION_DOT":"-0.00001166","REV_AT_EPOCH":"3281","OBJECT_NAME":"STARLINK-3389","LAUNCH_DATE":"2022-01-19","GP_ID":"210549344","MEAN_ANOMALY":"294.8028","ELEMENT_SET_NO":"999","REF_FRAME":"TEME","MEAN_MOTION":"15.08832640","SITE":"AFETR","FILE":"3540705","EPOCH":"2022-08-19T20:27:54.161280","ARG_OF_PERICENTER":"65.3120","PERIAPSIS":"538.729","OBJECT_TYPE":"PAYLOAD","PERIOD":"95.438","DECAY_DATE":null,"APOAPSIS":"540.807","INCLINATION":"53.2201","EPHEMERIS_TYPE":"0","RA_OF_ASC_NODE":"5.3419","OBJECT_ID":"2022-005W","TIME_SYSTEM":"UTC","MEAN_ELEMENT_THEORY":"SGP4","TLE_LINE2":"2 51124  53.2201   5.3419 0001502  65.3120 294.8028 15.08832640 32819","RCS_SIZE":"LARGE","NORAD_CAT_ID":"51124","TLE_LINE1":"1 51124U 22005W   22231.85271020 -.00001166  00000-0 -55206-4 0  9995","BSTAR":"-0.00005520600000","ECCENTRICITY":"0.00015020","COUNTRY_CODE":"US"},{"INCLINATION":"53.2182","OBJECT_ID":"2022-005X","RA_OF_ASC_NODE":"6.8836","EPHEMERIS_TYPE":"0","OBJECT_TYPE":"PAYLOAD","APOAPSIS":"540.860","DECAY_DATE":null,"PERIOD":"95.437","COUNTRY_CODE":"US","ECCENTRICITY":"0.00016610","MEAN_ELEMENT_THEORY":"SGP4","TLE_LINE2":"2 51125  53.2182   6.8836 0001661  57.9421 302.1732 15.08851233 32740","TIME_SYSTEM":"UTC","TLE_LINE1":"1 51125U 22005X   22231.51046276  .00002764  00000-0  19164-3 0  9997","BSTAR":"0.00019164000000","NORAD_CAT_ID":"51125","RCS_SIZE":"LARGE","CLASSIFICATION_TYPE":"U","CENTER_NAME":"EARTH","MEAN_MOTION_DOT":"0.00002764","SEMIMAJOR_AXIS":"6917.846","MEAN_MOTION_DDOT":"0.0000000000000","EPOCH":"2022-08-19T12:15:03.982464","FILE":"3540406","SITE":"AFETR","PERIAPSIS":"538.562","ARG_OF_PERICENTER":"57.9421","MEAN_ANOMALY":"302.1732","GP_ID":"210517787","LAUNCH_DATE":"2022-01-19","OBJECT_NAME":"STARLINK-3387","REV_AT_EPOCH":"3274","MEAN_MOTION":"15.08851233","ELEMENT_SET_NO":"999","REF_FRAME":"TEME"},{"MEAN_ANOMALY":"316.1250","GP_ID":"210518029","LAUNCH_DATE":"2022-01-19","OBJECT_NAME":"STARLINK-3386","REV_AT_EPOCH":"3276","MEAN_MOTION":"15.08848056","ELEMENT_SET_NO":"999","REF_FRAME":"TEME","EPOCH":"2022-08-19T12:25:40.013472","SITE":"AFETR","FILE":"3540406","PERIAPSIS":"538.428","ARG_OF_PERICENTER":"43.9891","SEMIMAJOR_AXIS":"6917.856","MEAN_MOTION_DDOT":"0.0000000000000","CLASSIFICATION_TYPE":"U","CENTER_NAME":"EARTH","MEAN_MOTION_DOT":"0.00000519","MEAN_ELEMENT_THEORY":"SGP4","TLE_LINE2":"2 51126  53.2184   6.8524 0001869  43.9891 316.1250 15.08848056 32764","TIME_SYSTEM":"UTC","BSTAR":"0.00005069000000","TLE_LINE1":"1 51126U 22005Y   22231.51782423  .00000519  00000-0  50690-4 0  9995","RCS_SIZE":"LARGE","NORAD_CAT_ID":"51126","COUNTRY_CODE":"US","ECCENTRICITY":"0.00018690","OBJECT_TYPE":"PAYLOAD","APOAPSIS":"541.014","DECAY_DATE":null,"PERIOD":"95.437","INCLINATION":"53.2184","OBJECT_ID":"2022-005Y","RA_OF_ASC_NODE":"6.8524","EPHEMERIS_TYPE":"0"},{"PERIAPSIS":"538.826","ARG_OF_PERICENTER":"75.2075","EPOCH":"2022-08-19T17:06:31.810752","FILE":"3540705","SITE":"AFETR","MEAN_MOTION":"15.08839547","ELEMENT_SET_NO":"999","REF_FRAME":"TEME","MEAN_ANOMALY":"284.9065","GP_ID":"210548594","OBJECT_NAME":"STARLINK-3370","REV_AT_EPOCH":"3278","LAUNCH_DATE":"2022-01-19","MEAN_MOTION_DOT":"-0.00001124","CENTER_NAME":"EARTH","CLASSIFICATION_TYPE":"U","SEMIMAJOR_AXIS":"6917.882","MEAN_MOTION_DDOT":"0.0000000000000","ECCENTRICITY":"0.00013310","COUNTRY_CODE":"US","BSTAR":"-0.00005255400000","TLE_LINE1":"1 51127U 22005Z   22231.71286818 -.00001124  00000-0 -52554-4 0  9991","RCS_SIZE":"LARGE","NORAD_CAT_ID":"51127","TIME_SYSTEM":"UTC","TLE_LINE2":"2 51127  53.2190   5.9726 0001331  75.2075 284.9065 15.08839547 32785","MEAN_ELEMENT_THEORY":"SGP4","OBJECT_ID":"2022-005Z","RA_OF_ASC_NODE":"5.9726","EPHEMERIS_TYPE":"0","INCLINATION":"53.2190","DECAY_DATE":null,"APOAPSIS":"540.668","PERIOD":"95.438","OBJECT_TYPE":"PAYLOAD"}];
